[Satellite]
VERSION=1.1
NAME=TIANWANG 1A (TW-1A)
NICKNAME=TIANWANG 1A (TW-1A)
TLE1=1 40928U 15051D   17186.19409478  .00002961  00000-0  85927-4 0  9993
TLE2=2 40928  97.2262 221.6865 0014026 128.0295 307.5467 15.36204174 99466
